GLOBALSTAR M057 [-]     
1 25943U 99058A   23291.21517620 -.00000040  00000+0  48434-3 0  9995
2 25943  51.9974 273.5395 0002315 197.5381 162.5389 12.24775501 92435
GLOBALSTAR M056 [-]     
1 25945U 99058C   23291.54160844 -.00000044  00000+0  51020-3 0  9994
2 25945  51.9967  68.5798 0001601  82.9281 354.0302 12.04770277 89433
GLOBALSTAR M031 [-]     
1 25946U 99058D   23291.46572786 -.00000060  00000+0  30657-3 0  9999
2 25946  51.9992 357.4695 0001653  40.7223 332.0762 12.15998247 90858
GLOBALSTAR M034 [-]     
1 25962U 99062B   23291.07054059 -.00000063  00000+0  28213-3 0  9995
2 25962  51.9860 152.0972 0013991 337.1747 191.0394 11.79416065 66634
GLOBALSTAR M061 [-]     
1 25964U 99062D   23290.94662972 -.00000057  00000+0  38262-3 0  9999
2 25964  51.9811 328.3981 0005750 261.7931 168.0159 11.76751800 49574
